[{"OBJECT_NAME":"STARLINK-3919","OBJECT_ID":"2022-051AW","EPOCH":"2026-03-09T11:05:32.756352","MEAN_MOTION":15.0884405,"ECCENTRICITY":0.00013977,"INCLINATION":53.2161,"RA_OF_ASC_NODE":135.1523,"ARG_OF_PERICENTER":93.5124,"MEAN_ANOMALY":266.6028,"EPHEMERIS_TYPE":0,"CLASSIFICATION_TYPE":"U","NORAD_CAT_ID":52580,"ELEMENT_SET_NO":999,"REV_AT_EPOCH":21134,"BSTAR":4.3521448e-5,"MEAN_MOTION_DOT":4.05e-6,"MEAN_MOTION_DDOT":0},{"OBJECT_NAME":"STARLINK-5895","OBJECT_ID":"2023-037BC","EPOCH":"2026-03-09T22:23:45.381696","MEAN_MOTION":15.07243555,"ECCENTRICITY":0.00049855,"INCLINATION":69.9972,"RA_OF_ASC_NODE":260.028,"ARG_OF_PERICENTER":264.4993,"MEAN_ANOMALY":95.5602,"EPHEMERIS_TYPE":0,"CLASSIFICATION_TYPE":"U","NORAD_CAT_ID":55964,"ELEMENT_SET_NO":999,"REV_AT_EPOCH":16460,"BSTAR":0.00072849946,"MEAN_MOTION_DOT":0.00010921,"MEAN_MOTION_DDOT":0}]
