STARLINK-3919           
1 52580U 22051AW  26068.46218468  .00000405  00000+0  43521-4 0  9998
2 52580  53.2161 135.1523 0001397  93.5124 266.6028 15.08844050211340
STARLINK-5895           
1 55964U 23037BC  26068.93316413  .00010921  00000+0  72850-3 0  9993
2 55964  69.9972 260.0280 0004986 264.4993  95.5602 15.07243555164606
